{
    "links": {
        "self": "http://www.neowsapp.com/rest/v1/neo/3788147?api_key=iIulBulltgU6a56xZRHN4H3l9WmuAYTsLGpBGhQ2"
    },
    "id": "3788147",
    "neo_reference_id": "3788147",
    "name": "(2017 UK43)",
    "designation": "2017 UK43",
    "nasa_jpl_url": "http://ssd.jpl.nasa.gov/sbdb.cgi?sstr=3788147",
    "absolute_magnitude_h": 23.1,
    "estimated_diameter": {
        "kilometers": {
            "estimated_diameter_min": 0.063760979,
            "estimated_diameter_max": 0.1425738833
        },
        "meters": {
            "estimated_diameter_min": 63.7609789875,
            "estimated_diameter_max": 142.5738833281
        },
        "miles": {
            "estimated_diameter_min": 0.0396192233,
            "estimated_diameter_max": 0.0885912765
        },
        "feet": {
            "estimated_diameter_min": 209.1895703015,
            "estimated_diameter_max": 467.7620993781
        }
    },
    "is_potentially_hazardous_asteroid": false,
    "close_approach_data": [
        {
            "close_approach_date": "2017-11-20",
            "close_approach_date_full": "2017-Nov-20 03:31",
            "epoch_date_close_approach": 1511148660000,
            "relative_velocity": {
                "kilometers_per_second": "2.315247302",
                "kilometers_per_hour": "8334.8902873218",
                "miles_per_hour": "5178.9766899195"
            },
            "miss_distance": {
                "astronomical": "0.278302635",
                "lunar": "108.259725015",
                "kilometers": "41633481.41138745",
                "miles": "25869845.74834881"
            },
            "orbiting_body": "Earth"
        }
    ],
    "orbital_data": {
        "orbit_id": "2",
        "orbit_determination_date": "2017-11-15 06:24:26",
        "first_observation_date": "2017-10-28",
        "last_observation_date": "2017-11-15",
        "data_arc_in_days": 18,
        "observations_used": 16,
        "orbit_uncertainty": "8",
        "minimum_orbit_intersection": ".278491",
        "jupiter_tisserand_invariant": "3.291",
        "epoch_osculation": "2458056.5",
        "eccentricity": ".4936991828834178",
        "semi_major_axis": "2.491301849436371",
        "inclination": "2.838656512682456",
        "ascending_node_longitude": "129.3738462452054",
        "orbital_period": "1436.276161960262",
        "perihelion_distance": "1.261348162053687",
        "perihelion_argument": "289.6479633377053",
        "aphelion_distance": "3.721255536819055",
        "perihelion_time": "2458079.004090426412",
        "mean_anomaly": "354.3593907856472",
        "mean_motion": ".2506481758415206",
        "equinox": "J2000",
        "orbit_class": {
            "orbit_class_type": "AMO",
            "orbit_class_description": "Near-Earth asteroid orbits similar to that of 1221 Amor",
            "orbit_class_range": "1.017 AU < q (perihelion) < 1.3 AU"
        }
    },
    "is_sentry_object": false
}